TDRS 3                  
1 19548U 88091B   22206.81037869 -.00000298  00000+0  00000+0 0  9995
2 19548  13.6863 351.0158 0033649 329.4685 225.7338  1.00279979111109
FLTSATCOM 8 (USA 46)    
1 20253U 89077A   22207.48034822 -.00000078  00000+0  00000+0 0  9991
2 20253  12.8473 359.9602 0008063 119.9049  69.0619  1.00272744246351
SKYNET 4C               
1 20776U 90079A   22207.06090894  .00000126  00000+0  00000+0 0  9993
2 20776  13.7932 359.7611 0002453 124.7929 234.5820  1.00267655116621
TDRS 5                  
1 21639U 91054B   22207.58887579  .00000085  00000+0  00000+0 0  9991
2 21639  14.2341   4.3380 0023466   3.3063 341.1343  1.00280467113453
TDRS 6                  
1 22314U 93003B   22207.31330431 -.00000296  00000+0  00000+0 0  9994
2 22314  14.1330   7.5848 0012654 123.3740 239.7784  1.00265893108155
UFO 2 (USA 95)          
1 22787U 93056A   22207.11299056  .00000125  00000+0  00000+0 0  9991
2 22787  11.4746  10.9379 0002267 132.8036 229.4368  1.00269586104297
USA 99 (MILSTAR-1 1)    
1 22988U 94009A   22207.14834671 -.00000203  00000+0  00000+0 0  9992
2 22988  15.4075  42.7067 0001858 125.4306  99.1162  1.00273666 18707
USA 107 (DSP 17)        
1 23435U 94084A   22207.44677608 -.00000167  00000+0  00000+0 0  9990
2 23435  14.5815   5.4426 0001630 125.2306 237.8603  1.00273613 18701
UFO 4 (USA 108)         
1 23467U 95003A   22207.35981677 -.00000023  00000+0  00000+0 0  9992
2 23467   9.8075  17.7201 0005844 102.9391 125.2667  1.00269820100690
AMSC 1                  
1 23553U 95019A   22207.03590973 -.00000096  00000+0  00000+0 0  9995
2 23553  11.9804  25.9565 0005180  85.5005  97.6675  1.00272421 99919
TDRS 7                  
1 23613U 95035B   22206.90892858 -.00000201  00000+0  00000+0 0  9990
2 23613  13.9626 358.2793 0028967  57.0182 300.1651  1.00276917 98989
USA 113                 
1 23628U 95038A   22207.22736774 -.00000342  00000+0  00000+0 0  9995
2 23628  12.1085  24.7659 0000892  64.8771  39.7667  1.00277076 18710
USA 115 (MILSTAR-1 2)   
1 23712U 95060A   22207.52063502 -.00000021  00000+0  00000+0 0  9993
2 23712  13.5392  14.0000 0001966 133.1540 224.5059  1.00275829 18622
INMARSAT 3-F1           
1 23839U 96020A   22207.25205691 -.00000135  00000+0  00000+0 0  9993
2 23839   7.6166  57.8730 0009030  64.3981 179.9456  0.99980091 96030
INMARSAT 3-F2           
1 24307U 96053A   22207.53849294 -.00000265  00000+0  00000+0 0  9998
2 24307   6.6032  66.6967 0010244  40.2456 179.8575  1.00004649 94703
AMC-1 (GE-1)            
1 24315U 96054A   22207.47896633  .00000062  00000+0  00000+0 0  9994
2 24315   5.7088  72.8398 0002848  46.0307 226.7828  1.00272360 32061
INMARSAT 3-F3           
1 24674U 96070A   22207.26507889  .00000121  00000+0  00000+0 0  9995
2 24674   7.2146  61.4846 0007575  59.7393 308.3800  0.99992100 93692
GALAXY 25 (G-25)        
1 24812U 97026A   22207.12048978 -.00000005  00000+0  00000+0 0  9997
2 24812   3.7844  83.2961 0005457  12.9432 317.0279  1.00271462 92111
INTELSAT 5 (IS-5)       
1 24916U 97046A   22207.55507062 -.00000065  00000+0  00000+0 0  9991
2 24916   7.3085  60.7973 0003123  90.6993 158.6894  1.00272370 91366
AMC-3 (GE-3)            
1 24936U 97050A   22207.45174649 -.00000262  00000+0  00000+0 0  9997
2 24936   4.6375  79.1454 0002704  55.6718 259.9159  1.00271819 38174
USA 134                 
1 25019U 97065A   22207.51299524 -.00000063  00000+0  00000+0 0  9992
2 25019  11.0961  31.2470 0003544  42.2033 303.2557  1.00271499 18696
ASTRA 1G                
1 25071U 97076A   22207.27063023  .00000112  00000+0  00000+0 0  9992
2 25071   6.3304  68.0109 0002868  60.5729 292.1576  1.00273472 90243
INMARSAT 3-F5           
1 25153U 98006B   22207.45532170 -.00000292  00000+0  00000+0 0  9991
2 25153   6.4836  65.5577 0004266  62.9289 285.5781  1.00274128 89631
UFO 8 (USA 138)         
1 25258U 98016A   22207.36336427  .00000004  00000+0  00000+0 0  9995
2 25258   9.4657  29.7399 0003150  79.2503 141.0937  1.00292692 89596
ASTRA 2A                
1 25462U 98050A   22207.24841178  .00000068  00000+0  00000+0 0  9991
2 25462   3.4983  85.1890 0001935  34.0556 331.2873  1.00271296 32088
SKYNET 4E               
1 25639U 99009B   22207.17882682 -.00000034  00000+0  00000+0 0  9993
2 25639  11.2659  16.7119 0002983 110.5001 239.8460  1.00274829 37124
ABS-7                   
1 25894U 99046A   22207.57109881  .00000129  00000+0  00000+0 0  9998
2 25894   2.8580  87.2869 0006160  24.3395 250.6581  0.99965549 82869
ABS-6                   
1 25924U 99053A   22207.54579661 -.00000117  00000+0  00000+0 0  9992
2 25924   0.0475 271.1011 0004013 211.5716 177.0130  1.00274978 83596
AMC-4 (GE-4)            
1 25954U 99060A   22207.58791603  .00000088  00000+0  00000+0 0  9995
2 25954   1.6150  91.4745 0002832  29.1068 260.4050  1.00272693 29290
UFO 10 (USA 146)        
1 25967U 99063A   22207.31801311 -.00000188  00000+0  00000+0 0  9993
2 25967   8.7558  33.3012 0005547 101.9233 260.3882  1.00274054 83098
GALAXY 11 (G-11)        
1 26038U 99071A   22207.44747367 -.00000163  00000+0  00000+0 0  9999
2 26038   3.0958  87.2665 0000740 180.3187 104.5206  1.00271892 82827
USA 148                 
1 26052U 00001A   22207.37004888  .00000036  00000+0  00000+0 0  9994
2 26052   9.5972  42.1754 0000992 106.9932 108.2689  1.00271429 18708
ASIASTAR                
1 26107U 00016A   22207.57271521 -.00000336  00000+0  00000+0 0  9997
2 26107   5.7678  71.6755 0003929  54.8519 128.8959  1.00272549 81660
USA 149 (DSP 20)        
1 26356U 00024A   22207.59159604  .00000093  00000+0  00000+0 0  9990
2 26356  12.1084  21.2533 0001659 266.7790  63.2905  1.00274204 18659
TDRS 8                  
1 26388U 00034A   22207.52757844 -.00000238  00000+0  00000+0 0  9991
2 26388  10.4267  42.2821 0020743 352.9312 188.2677  1.00274193 80924
INTELSAT 9 (IS-9)       
1 26451U 00043A   22207.45610650 -.00000290  00000+0  00000+0 0  9995
2 26451   7.2938  60.9767 0002214  68.9318 288.4176  1.00273265 29887
NSS-11 (AAP-1)          
1 26554U 00059A   22207.56753642  .00000027  00000+0  00000+0 0  9994
2 26554   0.0392 301.4028 0002600 171.2553 211.8824  1.00272015 27034
USA 153                 
1 26575U 00065A   22207.42105196 -.00000327  00000+0  00000+0 0  9998
2 26575   9.1630  45.5029 0000951  60.0146 124.5355  1.00269309 18670
AMC-6 (GE-6)            
1 26580U 00067A   22207.58311470  .00000107  00000+0  00000+0 0  9992
2 26580   0.0581 275.3532 0002235 213.1319 246.6532  1.00272093 79666
INTELSAT 1R (IS-1R)     
1 26608U 00072A   22207.54433517 -.00000140  00000+0  00000+0 0  9990
2 26608   4.5679  80.2304 0000451 316.3288 260.7056  1.00271644 27069
ANIK F1                 
1 26624U 00076A   22207.44424726 -.00000061  00000+0  00000+0 0  9995
2 26624   1.5315  92.2207 0010800  20.9027 241.7436  1.00272271 28883
ASTRA 2D                
1 26638U 00081A   22207.26507889  .00000126  00000+0  00000+0 0  9999
2 26638   7.3721  60.0536 0001900  83.6650 279.3046  1.00273974 38651
AMC-8 (GE-8)            
1 26639U 00081B   22207.58781170  .00000088  00000+0  00000+0 0  9999
2 26639   2.5424  88.2083 0002953  19.3162 273.3298  1.00269592 79076
USA 157 (MILSTAR-2 2)   
1 26715U 01009A   22207.44005178  .00000011  00000+0  00000+0 0  9993
2 26715  10.0444  27.1204 0002479 118.2251 192.9725  1.00278845 18698
EUTELSAT 133 WEST A     
1 26719U 01011A   22207.59104907  .00000076  00000+0  00000+0 0  9997
2 26719   3.8068  82.4296 0002223  46.0596 255.6624  1.00272993 78280
INTELSAT 10 (IS-10)     
1 26766U 01019A   22207.56858522  .00000032  00000+0  00000+0 0  9995
2 26766   5.6680  73.0540 0002795  29.3213 224.3309  1.00272599 31367
INTELSAT 901 (IS-901)   
1 26824U 01024A   22207.46055373 -.00000200  00000+0  00000+0 0  9996
2 26824   0.0605 256.8154 0000892 249.6509 295.9580  1.00270817  8710
ASTRA 2C                
1 26853U 01025A   22207.45157208 -.00000260  00000+0  00000+0 0  9994
2 26853   4.6616  78.9505 0002589  56.6112 258.5705  1.00268197 30782
USA 159 (DSP 21)        
1 26880U 01033A   22206.90414023 -.00000300  00000+0  00000+0 0  9998
2 26880  11.4579  25.5468 0000501 316.3226 237.7513  1.00292482 18704
INTELSAT 902 (IS-902)   
1 26900U 01039A   22207.45610650 -.00000282  00000+0  00000+0 0  9991
2 26900   2.5009  88.6184 0003044  42.0135 287.5853  1.00273467 76434
USA 164 (MILSTAR-2 3)   
1 27168U 02001A   22207.18283803  .00000099  00000+0  00000+0 0  9999
2 27168   9.5469  28.8649 0002005 146.0125 213.7880  1.00276587 17386
ECHOSTAR 7              
1 27378U 02006A   22207.35188310  .00000101  00000+0  00000+0 0  9997
2 27378   0.3384  93.5315 0004996   2.8839   0.9874  0.99842779 36340
INTELSAT 904 (IS-904)   
1 27380U 02007A   22207.46020493 -.00000215  00000+0  00000+0 0  9997
2 27380   3.3327  85.5607 0002765  47.9821 306.7428  1.00272353 37500
TDRS 9                  
1 27389U 02011A   22207.45366490 -.00000291  00000+0  00000+0 0  9994
2 27389   9.0998  60.4635 0023155 303.2540  41.3214  1.00278189 76186
ASTRA 3A                
1 27400U 02015B   22207.10674366 -.00000207  00000+0  00000+0 0  9995
2 27400   7.4728  58.9304 0000878  70.9560 125.5608  1.00271620 74469
NSS-7                   
1 27414U 02019A   22207.46203615 -.00000160  00000+0  00000+0 0  9996
2 27414   5.9876  71.0088 0002387  59.2377 320.2139  1.00272001 74310
DIRECTV 5 (TEMPO 1)     
1 27426U 02023A   22207.44407285 -.00000054  00000+0  00000+0 0  9993
2 27426   1.2248  92.8202 0003035  36.3132 224.7091  1.00271924 73867
INTELSAT 905 (IS-905)   
1 27438U 02027A   22207.46116413 -.00000185  00000+0  00000+0 0  9997
2 27438   3.1543  86.3010 0002420  38.5609 320.7921  1.00271952 37101
GALAXY 3C (G-3C)        
1 27445U 02030A   22206.51443190 -.00000150  00000+0  00000+0 0  9991
2 27445   0.0702  69.6932 0000616 290.6466  33.2260  1.00272795 32222
